{
  "links" : {
    "next" : "https://api.nasa.gov/neo/rest/v1/feed?start_date=2014-10-09&end_date=2014-10-09&detailed=true&api_key=t0TVs3DtDT2H8Oy2Zy8m2eVrNsAVKAexjcZXUckd",
    "prev" : "https://api.nasa.gov/neo/rest/v1/feed?start_date=2014-10-07&end_date=2014-10-07&detailed=true&api_key=t0TVs3DtDT2H8Oy2Zy8m2eVrNsAVKAexjcZXUckd",
    "self" : "https://api.nasa.gov/neo/rest/v1/feed?start_date=2014-10-08&end_date=2014-10-08&detailed=true&api_key=t0TVs3DtDT2H8Oy2Zy8m2eVrNsAVKAexjcZXUckd"
  },
  "element_count" : 13,
  "near_earth_objects" : {
    "2014-10-08" : [ {
      "links" : {
        "self" : "https://api.nasa.gov/neo/rest/v1/neo/3694528?api_key=t0TVs3DtDT2H8Oy2Zy8m2eVrNsAVKAexjcZXUckd"
      },
      "neo_reference_id" : "3694528",
      "name" : "(2014 UM114)",
      "nasa_jpl_url" : "http://ssd.jpl.nasa.gov/sbdb.cgi?sstr=3694528",
      "absolute_magnitude_h" : 25.5,
      "estimated_diameter" : {
        "kilometers" : {
          "estimated_diameter_min" : 0.0211132445,
          "estimated_diameter_max" : 0.0472106499
        },
        "meters" : {
          "estimated_diameter_min" : 21.113244479,
          "estimated_diameter_max" : 47.2106498806
        },
        "miles" : {
          "estimated_diameter_min" : 0.0131191578,
          "estimated_diameter_max" : 0.0293353287
        },
        "feet" : {
          "estimated_diameter_min" : 69.2691770164,
          "estimated_diameter_max" : 154.8905885541
        }
      },
      "is_potentially_hazardous_asteroid" : false,
      "close_approach_data" : [ {
        "close_approach_date" : "2014-10-08",
        "epoch_date_close_approach" : 1412751600000,
        "relative_velocity" : {
          "kilometers_per_second" : "7.6572039071",
          "kilometers_per_hour" : "27565.9340655242",
          "miles_per_hour" : "17128.3994197697"
        },
        "miss_distance" : {
          "astronomical" : "0.0424382435",
          "lunar" : "16.5084762573",
          "kilometers" : "6348671",
          "miles" : "3944881.25"
        },
        "orbiting_body" : "Earth"
      } ],
      "orbital_data" : {
        "orbit_id" : "3",
        "orbit_determination_date" : "2017-04-06 08:37:52",
        "orbit_uncertainty" : "9",
        "minimum_orbit_intersection" : ".0359231",
        "jupiter_tisserand_invariant" : "3.938",
        "epoch_osculation" : "2456955.5",
        "eccentricity" : ".4391914427340451",
        "semi_major_axis" : "1.803251899556055",
        "inclination" : "5.572834636452863",
        "ascending_node_longitude" : "206.2089277234053",
        "orbital_period" : "884.4698321236567",
        "perihelion_distance" : "1.011279096177124",
        "perihelion_argument" : "147.4483472166315",
        "aphelion_distance" : "2.595224702934987",
        "perihelion_time" : "2456921.471616752885",
        "mean_anomaly" : "13.85035139021984",
        "mean_motion" : ".407023492407448",
        "equinox" : "J2000"
      }
    }, {
      "links" : {
        "self" : "https://api.nasa.gov/neo/rest/v1/neo/2085770?api_key=t0TVs3DtDT2H8Oy2Zy8m2eVrNsAVKAexjcZXUckd"
      },
      "neo_reference_id" : "2085770",
      "name" : "85770 (1998 UP1)",
      "nasa_jpl_url" : "http://ssd.jpl.nasa.gov/sbdb.cgi?sstr=2085770",
      "absolute_magnitude_h" : 20.5,
      "estimated_diameter" : {
        "kilometers" : {
          "estimated_diameter_min" : 0.2111324448,
          "estimated_diameter_max" : 0.4721064988
        },
        "meters" : {
          "estimated_diameter_min" : 211.1324447897,
          "estimated_diameter_max" : 472.1064988055
        },
        "miles" : {
          "estimated_diameter_min" : 0.1311915784,
          "estimated_diameter_max" : 0.2933532873
        },
        "feet" : {
          "estimated_diameter_min" : 692.6917701639,
          "estimated_diameter_max" : 1548.9058855411
        }
      },
      "is_potentially_hazardous_asteroid" : false,
      "close_approach_data" : [ {
        "close_approach_date" : "2014-10-08",
        "epoch_date_close_approach" : 1412751600000,
        "relative_velocity" : {
          "kilometers_per_second" : "16.7228422106",
          "kilometers_per_hour" : "60202.2319582442",
          "miles_per_hour" : "37407.3257409435"
        },
        "miss_distance" : {
          "astronomical" : "0.2365557811",
          "lunar" : "92.0202026367",
          "kilometers" : "35388244",
          "miles" : "21989234"
        },
        "orbiting_body" : "Earth"
      } ],
      "orbital_data" : {
        "orbit_id" : "96",
        "orbit_determination_date" : "2017-07-31 10:56:51",
        "orbit_uncertainty" : "0",
        "minimum_orbit_intersection" : ".0828979",
        "jupiter_tisserand_invariant" : "5.898",
        "epoch_osculation" : "2453883.5",
        "eccentricity" : ".3449432374913885",
        "semi_major_axis" : ".9987442710924688",
        "inclination" : "33.17788267128009",
        "ascending_node_longitude" : "18.40505380852373",
        "orbital_period" : "364.5691188866466",
        "perihelion_distance" : ".6542341887958556",
        "perihelion_argument" : "234.3772767052214",
        "aphelion_distance" : "1.343254353389082",
        "perihelion_time" : "2453924.809816898250",
        "mean_anomaly" : "319.2079161043974",
        "mean_motion" : ".9874670709888972",
        "equinox" : "J2000"
      }
    }, {
      "links" : {
        "self" : "https://api.nasa.gov/neo/rest/v1/neo/2163683?api_key=t0TVs3DtDT2H8Oy2Zy8m2eVrNsAVKAexjcZXUckd"
      },
      "neo_reference_id" : "2163683",
      "name" : "163683 (2002 YP2)",
      "nasa_jpl_url" : "http://ssd.jpl.nasa.gov/sbdb.cgi?sstr=2163683",
      "absolute_magnitude_h" : 19.0,
      "estimated_diameter" : {
        "kilometers" : {
          "estimated_diameter_min" : 0.4212646106,
          "estimated_diameter_max" : 0.9419763057
        },
        "meters" : {
          "estimated_diameter_min" : 421.2646105562,
          "estimated_diameter_max" : 941.9763057186
        },
        "miles" : {
          "estimated_diameter_min" : 0.2617616123,
          "estimated_diameter_max" : 0.5853167591
        },
        "feet" : {
          "estimated_diameter_min" : 1382.1017848971,
          "estimated_diameter_max" : 3090.4735428537
        }
      },
      "is_potentially_hazardous_asteroid" : true,
      "close_approach_data" : [ {
        "close_approach_date" : "2014-10-08",
        "epoch_date_close_approach" : 1412751600000,
        "relative_velocity" : {
          "kilometers_per_second" : "21.4249973784",
          "kilometers_per_hour" : "77129.9905622872",
          "miles_per_hour" : "47925.5766357723"
        },
        "miss_distance" : {
          "astronomical" : "0.4783533158",
          "lunar" : "186.0794372559",
          "kilometers" : "71560640",
          "miles" : "44465720"
        },
        "orbiting_body" : "Earth"
      } ],
      "orbital_data" : {
        "orbit_id" : "41",
        "orbit_determination_date" : "2017-04-06 09:26:13",
        "orbit_uncertainty" : "0",
        "minimum_orbit_intersection" : ".0201161",
        "jupiter_tisserand_invariant" : "4.047",
        "epoch_osculation" : "2458000.5",
        "eccentricity" : ".688205908074092",
        "semi_major_axis" : "1.576877477332597",
        "inclination" : "20.62352087354871",
        "ascending_node_longitude" : "52.51256314965484",
        "orbital_period" : "723.2615072603235",
        "perihelion_distance" : ".4916610811233338",
        "perihelion_argument" : "281.3721999180503",
        "aphelion_distance" : "2.662093873541861",
        "perihelion_time" : "2457643.528547591807",
        "mean_anomaly" : "177.6808548179727",
        "mean_motion" : ".4977452780027808",
        "equinox" : "J2000"
      }
    } ]
  }
}